STARLINK-31274          
1 59078U 24041E   26068.05546825  .00000563  00000+0  29958-4 0  9997
2 59078  43.0034 314.3613 0000824 276.4508  83.6250 15.27581829114178
TEVEL2-1                
1 63217U 25052H   26068.64782323  .00020683  00000+0  70600-3 0  9994
2 63217  97.3991 324.7682 0004767 104.8919 255.2849 15.30341923 54855
